[{"CCSDS_OMM_VERS":"2.0","COMMENT":"GENERATED VIA SPACE-TRACK.ORG API","CREATION_DATE":"2021-03-15T18:04:39","ORIGINATOR":"18 SPCS","OBJECT_NAME":"ONEWEB-0007","OBJECT_ID":"2019-010D","CENTER_NAME":"EARTH","REF_FRAME":"TEME","TIME_SYSTEM":"UTC","MEAN_ELEMENT_THEORY":"SGP4","EPOCH":"2021-03-15T11:51:21.752064","MEAN_MOTION":"13.21811356","ECCENTRICITY":"0.00015330","INCLINATION":"87.9103","RA_OF_ASC_NODE":"280.1704","ARG_OF_PERICENTER":"85.0432","MEAN_ANOMALY":"275.0877","EPHEMERIS_TYPE":"0","CLASSIFICATION_TYPE":"U","NORAD_CAT_ID":"44060","ELEMENT_SET_NO":"999","REV_AT_EPOCH":"9882","BSTAR":"-0.00005477300000","MEAN_MOTION_DOT":"-0.00000010","MEAN_MOTION_DDOT":"0.0000000000000","SEMIMAJOR_AXIS":"7555.946","PERIOD":"108.941","APOAPSIS":"1178.970","PERIAPSIS":"1176.653","OBJECT_TYPE":"PAYLOAD","RCS_SIZE":"LARGE","COUNTRY_CODE":"UK","LAUNCH_DATE":"2019-02-27","SITE":"FRGUI","DECAY_DATE":null,"FILE":"2982772","GP_ID":"173440580","TLE_LINE0":"0 ONEWEB-0007","TLE_LINE1":"1 44060U 19010D   21074.49400176 -.00000010  00000-0 -54773-4 0  9993","TLE_LINE2":"2 44060  87.9103 280.1704 0001533  85.0432 275.0877 13.21811356 98824"},{"CCSDS_OMM_VERS":"2.0","COMMENT":"GENERATED VIA SPACE-TRACK.ORG API","CREATION_DATE":"2021-03-16T03:21:53","ORIGINATOR":"18 SPCS","OBJECT_NAME":"ONEWEB-0007","OBJECT_ID":"2019-010D","CENTER_NAME":"EARTH","REF_FRAME":"TEME","TIME_SYSTEM":"UTC","MEAN_ELEMENT_THEORY":"SGP4","EPOCH":"2021-03-15T19:07:22.710432","MEAN_MOTION":"13.21811346","ECCENTRICITY":"0.00015320","INCLINATION":"87.9104","RA_OF_ASC_NODE":"280.1097","ARG_OF_PERICENTER":"85.1079","MEAN_ANOMALY":"275.0229","EPHEMERIS_TYPE":"0","CLASSIFICATION_TYPE":"U","NORAD_CAT_ID":"44060","ELEMENT_SET_NO":"999","REV_AT_EPOCH":"9886","BSTAR":"-0.00008792800000","MEAN_MOTION_DOT":"-0.00000023","MEAN_MOTION_DDOT":"0.0000000000000","SEMIMAJOR_AXIS":"7555.946","PERIOD":"108.941","APOAPSIS":"1178.969","PERIAPSIS":"1176.654","OBJECT_TYPE":"PAYLOAD","RCS_SIZE":"LARGE","COUNTRY_CODE":"UK","LAUNCH_DATE":"2019-02-27","SITE":"FRGUI","DECAY_DATE":null,"FILE":"2982960","GP_ID":"173466081","TLE_LINE0":"0 ONEWEB-0007","TLE_LINE1":"1 44060U 19010D   21074.79679063 -.00000023  00000-0 -87928-4 0  9991","TLE_LINE2":"2 44060  87.9104 280.1097 0001532  85.1079 275.0229 13.21811346 98861"},{"CCSDS_OMM_VERS":"2.0","COMMENT":"GENERATED VIA SPACE-TRACK.ORG API","CREATION_DATE":"2021-03-16T17:44:40","ORIGINATOR":"18 SPCS","OBJECT_NAME":"ONEWEB-0007","OBJECT_ID":"2019-010D","CENTER_NAME":"EARTH","REF_FRAME":"TEME","TIME_SYSTEM":"UTC","MEAN_ELEMENT_THEORY":"SGP4","EPOCH":"2021-03-16T11:28:24.854016","MEAN_MOTION":"13.21811599","ECCENTRICITY":"0.00015230","INCLINATION":"87.9103","RA_OF_ASC_NODE":"279.9731","ARG_OF_PERICENTER":"85.5194","MEAN_ANOMALY":"274.6114","EPHEMERIS_TYPE":"0","CLASSIFICATION_TYPE":"U","NORAD_CAT_ID":"44060","ELEMENT_SET_NO":"999","REV_AT_EPOCH":"9895","BSTAR":"-0.00003806100000","MEAN_MOTION_DOT":"-0.00000003","MEAN_MOTION_DDOT":"0.0000000000000","SEMIMAJOR_AXIS":"7555.945","PERIOD":"108.941","APOAPSIS":"1178.961","PERIAPSIS":"1176.659","OBJECT_TYPE":"PAYLOAD","RCS_SIZE":"LARGE","COUNTRY_CODE":"UK","LAUNCH_DATE":"2019-02-27","SITE":"FRGUI","DECAY_DATE":null,"FILE":"2983368","GP_ID":"173497585","TLE_LINE0":"0 ONEWEB-0007","TLE_LINE1":"1 44060U 19010D   21075.47806544 -.00000003  00000-0 -38061-4 0  9995","TLE_LINE2":"2 44060  87.9103 279.9731 0001523  85.5194 274.6114 13.21811599 98951"},{"CCSDS_OMM_VERS":"2.0","COMMENT":"GENERATED VIA SPACE-TRACK.ORG API","CREATION_DATE":"2021-03-17T03:48:30","ORIGINATOR":"18 SPCS","OBJECT_NAME":"ONEWEB-0007","OBJECT_ID":"2019-010D","CENTER_NAME":"EARTH","REF_FRAME":"TEME","TIME_SYSTEM":"UTC","MEAN_ELEMENT_THEORY":"SGP4","EPOCH":"2021-03-16T15:06:25.225632","MEAN_MOTION":"13.21812693","ECCENTRICITY":"0.00015250","INCLINATION":"87.9103","RA_OF_ASC_NODE":"279.9428","ARG_OF_PERICENTER":"85.5410","MEAN_ANOMALY":"274.5898","EPHEMERIS_TYPE":"0","CLASSIFICATION_TYPE":"U","NORAD_CAT_ID":"44060","ELEMENT_SET_NO":"999","REV_AT_EPOCH":"9897","BSTAR":"0.00031256000000","MEAN_MOTION_DOT":"0.00000142","MEAN_MOTION_DDOT":"0.0000000000000","SEMIMAJOR_AXIS":"7555.941","PERIOD":"108.941","APOAPSIS":"1178.958","PERIAPSIS":"1176.654","OBJECT_TYPE":"PAYLOAD","RCS_SIZE":"LARGE","COUNTRY_CODE":"UK","LAUNCH_DATE":"2019-02-27","SITE":"FRGUI","DECAY_DATE":null,"FILE":"2983743","GP_ID":"173529788","TLE_LINE0":"0 ONEWEB-0007","TLE_LINE1":"1 44060U 19010D   21075.62945863  .00000142  00000-0  31256-3 0  9990","TLE_LINE2":"2 44060  87.9103 279.9428 0001525  85.5410 274.5898 13.21812693 98973"},{"CCSDS_OMM_VERS":"2.0","COMMENT":"GENERATED VIA SPACE-TRACK.ORG API","CREATION_DATE":"2021-03-17T20:36:38","ORIGINATOR":"18 SPCS","OBJECT_NAME":"ONEWEB-0007","OBJECT_ID":"2019-010D","CENTER_NAME":"EARTH","REF_FRAME":"TEME","TIME_SYSTEM":"UTC","MEAN_ELEMENT_THEORY":"SGP4","EPOCH":"2021-03-17T11:05:27.841056","MEAN_MOTION":"13.21812870","ECCENTRICITY":"0.00015460","INCLINATION":"87.9103","RA_OF_ASC_NODE":"279.7758","ARG_OF_PERICENTER":"84.9645","MEAN_ANOMALY":"275.1665","EPHEMERIS_TYPE":"0","CLASSIFICATION_TYPE":"U","NORAD_CAT_ID":"44060","ELEMENT_SET_NO":"999","REV_AT_EPOCH":"9908","BSTAR":"0.00033639000000","MEAN_MOTION_DOT":"0.00000152","MEAN_MOTION_DDOT":"0.0000000000000","SEMIMAJOR_AXIS":"7555.940","PERIOD":"108.941","APOAPSIS":"1178.974","PERIAPSIS":"1176.637","OBJECT_TYPE":"PAYLOAD","RCS_SIZE":"LARGE","COUNTRY_CODE":"UK","LAUNCH_DATE":"2019-02-27","SITE":"FRGUI","DECAY_DATE":null,"FILE":"2984683","GP_ID":"173571372","TLE_LINE0":"0 ONEWEB-0007","TLE_LINE1":"1 44060U 19010D   21076.46212779  .00000152  00000-0  33639-3 0  9994","TLE_LINE2":"2 44060  87.9103 279.7758 0001546  84.9645 275.1665 13.21812870 99082"},{"CCSDS_OMM_VERS":"2.0","COMMENT":"GENERATED VIA SPACE-TRACK.ORG API","CREATION_DATE":"2021-03-18T04:44:35","ORIGINATOR":"18 SPCS","OBJECT_NAME":"ONEWEB-0007","OBJECT_ID":"2019-010D","CENTER_NAME":"EARTH","REF_FRAME":"TEME","TIME_SYSTEM":"UTC","MEAN_ELEMENT_THEORY":"SGP4","EPOCH":"2021-03-17T14:43:28.300800","MEAN_MOTION":"13.21813093","ECCENTRICITY":"0.00015450","INCLINATION":"87.9103","RA_OF_ASC_NODE":"279.7455","ARG_OF_PERICENTER":"84.9424","MEAN_ANOMALY":"275.1886","EPHEMERIS_TYPE":"0","CLASSIFICATION_TYPE":"U","NORAD_CAT_ID":"44060","ELEMENT_SET_NO":"999","REV_AT_EPOCH":"9910","BSTAR":"0.00027847000000","MEAN_MOTION_DOT":"0.00000128","MEAN_MOTION_DDOT":"0.0000000000000","SEMIMAJOR_AXIS":"7555.940","PERIOD":"108.941","APOAPSIS":"1178.972","PERIAPSIS":"1176.637","OBJECT_TYPE":"PAYLOAD","RCS_SIZE":"LARGE","COUNTRY_CODE":"UK","LAUNCH_DATE":"2019-02-27","SITE":"FRGUI","DECAY_DATE":null,"FILE":"2985038","GP_ID":"173601258","TLE_LINE0":"0 ONEWEB-0007","TLE_LINE1":"1 44060U 19010D   21076.61352200  .00000128  00000-0  27847-3 0  9992","TLE_LINE2":"2 44060  87.9103 279.7455 0001545  84.9424 275.1886 13.21813093 99106"},{"CCSDS_OMM_VERS":"2.0","COMMENT":"GENERATED VIA SPACE-TRACK.ORG API","CREATION_DATE":"2021-03-18T06:16:12","ORIGINATOR":"18 SPCS","OBJECT_NAME":"ONEWEB-0007","OBJECT_ID":"2019-010D","CENTER_NAME":"EARTH","REF_FRAME":"TEME","TIME_SYSTEM":"UTC","MEAN_ELEMENT_THEORY":"SGP4","EPOCH":"2021-03-17T23:48:29.481696","MEAN_MOTION":"13.21812911","ECCENTRICITY":"0.00015450","INCLINATION":"87.9102","RA_OF_ASC_NODE":"279.6696","ARG_OF_PERICENTER":"85.5114","MEAN_ANOMALY":"274.6196","EPHEMERIS_TYPE":"0","CLASSIFICATION_TYPE":"U","NORAD_CAT_ID":"44060","ELEMENT_SET_NO":"999","REV_AT_EPOCH":"9919","BSTAR":"0.00038639000000","MEAN_MOTION_DOT":"0.00000173","MEAN_MOTION_DDOT":"0.0000000000000","SEMIMAJOR_AXIS":"7555.940","PERIOD":"108.941","APOAPSIS":"1178.973","PERIAPSIS":"1176.638","OBJECT_TYPE":"PAYLOAD","RCS_SIZE":"LARGE","COUNTRY_CODE":"UK","LAUNCH_DATE":"2019-02-27","SITE":"FRGUI","DECAY_DATE":null,"FILE":"2985057","GP_ID":"173603313","TLE_LINE0":"0 ONEWEB-0007","TLE_LINE1":"1 44060U 19010D   21076.99200789  .00000173  00000-0  38639-3 0  9998","TLE_LINE2":"2 44060  87.9102 279.6696 0001545  85.5114 274.6196 13.21812911 99199"},{"CCSDS_OMM_VERS":"2.0","COMMENT":"GENERATED VIA SPACE-TRACK.ORG API","CREATION_DATE":"2021-03-18T17:47:02","ORIGINATOR":"18 SPCS","OBJECT_NAME":"ONEWEB-0007","OBJECT_ID":"2019-010D","CENTER_NAME":"EARTH","REF_FRAME":"TEME","TIME_SYSTEM":"UTC","MEAN_ELEMENT_THEORY":"SGP4","EPOCH":"2021-03-18T07:04:30.427968","MEAN_MOTION":"13.21812930","ECCENTRICITY":"0.00015220","INCLINATION":"87.9102","RA_OF_ASC_NODE":"279.6088","ARG_OF_PERICENTER":"86.9043","MEAN_ANOMALY":"273.2265","EPHEMERIS_TYPE":"0","CLASSIFICATION_TYPE":"U","NORAD_CAT_ID":"44060","ELEMENT_SET_NO":"999","REV_AT_EPOCH":"9919","BSTAR":"0.00025611000000","MEAN_MOTION_DOT":"0.00000119","MEAN_MOTION_DDOT":"0.0000000000000","SEMIMAJOR_AXIS":"7555.940","PERIOD":"108.941","APOAPSIS":"1178.955","PERIAPSIS":"1176.655","OBJECT_TYPE":"PAYLOAD","RCS_SIZE":"LARGE","COUNTRY_CODE":"UK","LAUNCH_DATE":"2019-02-27","SITE":"FRGUI","DECAY_DATE":null,"FILE":"2985639","GP_ID":"173637631","TLE_LINE0":"0 ONEWEB-0007","TLE_LINE1":"1 44060U 19010D   21077.29479662  .00000119  00000-0  25611-3 0  9996","TLE_LINE2":"2 44060  87.9102 279.6088 0001522  86.9043 273.2265 13.21812930 99198"}]